[{"OBJECT_NAME":"STARLINK-4687","OBJECT_ID":"2022-111M","EPOCH":"2026-03-09T21:00:21.609504","MEAN_MOTION":15.08832094,"ECCENTRICITY":0.00012401,"INCLINATION":53.217,"RA_OF_ASC_NODE":273.326,"ARG_OF_PERICENTER":81.8434,"MEAN_ANOMALY":278.2699,"EPHEMERIS_TYPE":0,"CLASSIFICATION_TYPE":"U","NORAD_CAT_ID":53784,"ELEMENT_SET_NO":999,"REV_AT_EPOCH":19372,"BSTAR":2.9043371e-5,"MEAN_MOTION_DOT":1.74e-6,"MEAN_MOTION_DDOT":0},{"OBJECT_NAME":"RAPIDEYE 1","OBJECT_ID":"2008-040C","EPOCH":"2026-03-09T15:08:44.758176","MEAN_MOTION":15.03049091,"ECCENTRICITY":0.0028174,"INCLINATION":97.4223,"RA_OF_ASC_NODE":100.7722,"ARG_OF_PERICENTER":157.1968,"MEAN_ANOMALY":203.0516,"EPHEMERIS_TYPE":0,"CLASSIFICATION_TYPE":"U","NORAD_CAT_ID":33314,"ELEMENT_SET_NO":999,"REV_AT_EPOCH":95070,"BSTAR":0.00023277,"MEAN_MOTION_DOT":3.104e-5,"MEAN_MOTION_DDOT":0}]
